start=new Date('2022-07-04T00:00:00.000Z').valueOf();
sats=[{"LAUNCH_DATE":"2020-08-18","PERIAPSIS":"546.012","OBJECT_TYPE":"PAYLOAD","SITE":"AFETR","PERIOD":"95.592","RCS_SIZE":"LARGE","MEAN_MOTION_DDOT":"0.0000000000000","DECAY_DATE":null,"TIME_SYSTEM":"UTC","REV_AT_EPOCH":"10481","TLE_LINE2":"2 46160  53.0539 216.2816 0001749  47.9819 312.1319 15.06396681104818","RA_OF_ASC_NODE":"216.2816","ELEMENT_SET_NO":"999","ECCENTRICITY":"0.00017490","BSTAR":"0.00009048200000","OBJECT_NAME":"STARLINK-1598","OBJECT_ID":"2020-057AV","EPHEMERIS_TYPE":"0","CLASSIFICATION_TYPE":"U","REF_FRAME":"TEME","FILE":"3507188","TLE_LINE1":"1 46160U 20057AV  22184.30487484  .00001066  00000-0  90482-4 0  9996","GP_ID":"207327092","MEAN_ANOMALY":"312.1319","COUNTRY_CODE":"US","ARG_OF_PERICENTER":"47.9819","SEMIMAJOR_AXIS":"6925.359","MEAN_ELEMENT_THEORY":"SGP4","EPOCH":"2022-07-03T07:19:01.186176","MEAN_MOTION":"15.06396681","APOAPSIS":"548.435","INCLINATION":"53.0539","MEAN_MOTION_DOT":"0.00001066","NORAD_CAT_ID":"46160","CENTER_NAME":"EARTH"},{"APOAPSIS":"548.073","INCLINATION":"53.0538","EPOCH":"2022-07-03T21:06:59.732928","MEAN_MOTION":"15.06399474","SEMIMAJOR_AXIS":"6925.350","MEAN_ELEMENT_THEORY":"SGP4","CENTER_NAME":"EARTH","NORAD_CAT_ID":"46161","MEAN_MOTION_DOT":"-0.00000368","GP_ID":"207355052","TLE_LINE1":"1 46161U 20057AW  22184.87985802 -.00000368  00000-0 -58101-5 0  9995","COUNTRY_CODE":"US","ARG_OF_PERICENTER":"77.3217","MEAN_ANOMALY":"282.7910","BSTAR":"-0.00000581010000","ECCENTRICITY":"0.00012380","RA_OF_ASC_NODE":"213.6977","TLE_LINE2":"2 46161  53.0538 213.6977 0001238  77.3217 282.7910 15.06399474104901","REV_AT_EPOCH":"10490","ELEMENT_SET_NO":"999","TIME_SYSTEM":"UTC","FILE":"3507292","REF_FRAME":"TEME","CLASSIFICATION_TYPE":"U","OBJECT_ID":"2020-057AW","OBJECT_NAME":"STARLINK-1600","EPHEMERIS_TYPE":"0","PERIAPSIS":"546.358","LAUNCH_DATE":"2020-08-18","RCS_SIZE":"LARGE","PERIOD":"95.592","MEAN_MOTION_DDOT":"0.0000000000000","DECAY_DATE":null,"OBJECT_TYPE":"PAYLOAD","SITE":"AFETR"},{"LAUNCH_DATE":"2020-08-18","PERIAPSIS":"546.195","SITE":"AFETR","OBJECT_TYPE":"PAYLOAD","DECAY_DATE":null,"RCS_SIZE":"LARGE","PERIOD":"95.592","MEAN_MOTION_DDOT":"0.0000000000000","TIME_SYSTEM":"UTC","ECCENTRICITY":"0.00014590","BSTAR":"0.00007698100000","TLE_LINE2":"2 46162  53.0540 213.9976 0001459  66.6669 293.4473 15.06402559104906","RA_OF_ASC_NODE":"213.9976","ELEMENT_SET_NO":"999","REV_AT_EPOCH":"10490","CLASSIFICATION_TYPE":"U","OBJECT_NAME":"STARLINK-1603","OBJECT_ID":"2020-057AX","EPHEMERIS_TYPE":"0","FILE":"3507292","REF_FRAME":"TEME","GP_ID":"207353816","TLE_LINE1":"1 46162U 20057AX  22184.81720441  .00000865  00000-0  76981-4 0  9991","MEAN_ANOMALY":"293.4473","ARG_OF_PERICENTER":"66.6669","COUNTRY_CODE":"US","MEAN_ELEMENT_THEORY":"SGP4","SEMIMAJOR_AXIS":"6925.341","INCLINATION":"53.0540","APOAPSIS":"548.216","MEAN_MOTION":"15.06402559","EPOCH":"2022-07-03T19:36:46.461024","MEAN_MOTION_DOT":"0.00000865","CENTER_NAME":"EARTH","NORAD_CAT_ID":"46162"},{"ARG_OF_PERICENTER":"54.1935","COUNTRY_CODE":"US","MEAN_ANOMALY":"305.9221","GP_ID":"207354066","TLE_LINE1":"1 46163U 20057AY  22184.74900691  .00000739  00000-0  68527-4 0  9998","CENTER_NAME":"EARTH","NORAD_CAT_ID":"46163","MEAN_MOTION_DOT":"0.00000739","INCLINATION":"53.0545","APOAPSIS":"548.451","MEAN_MOTION":"15.06402829","EPOCH":"2022-07-03T17:58:34.197024","MEAN_ELEMENT_THEORY":"SGP4","SEMIMAJOR_AXIS":"6925.340","DECAY_DATE":null,"RCS_SIZE":"LARGE","MEAN_MOTION_DDOT":"0.0000000000000","PERIOD":"95.592","SITE":"AFETR","OBJECT_TYPE":"PAYLOAD","PERIAPSIS":"545.959","LAUNCH_DATE":"2020-08-18","FILE":"3507292","REF_FRAME":"TEME","CLASSIFICATION_TYPE":"U","OBJECT_NAME":"STARLINK-1610","OBJECT_ID":"2020-057AY","EPHEMERIS_TYPE":"0","BSTAR":"0.00006852700000","ECCENTRICITY":"0.00017990","TLE_LINE2":"2 46163  53.0545 194.2803 0001799  54.1935 305.9221 15.06402829103917","RA_OF_ASC_NODE":"194.2803","REV_AT_EPOCH":"10391","ELEMENT_SET_NO":"999","TIME_SYSTEM":"UTC"},{"REV_AT_EPOCH":"10517","TLE_LINE2":"2 46164  53.0532 194.3003 0001478  69.3357 290.7790 15.06398402105170","RA_OF_ASC_NODE":"194.3003","ELEMENT_SET_NO":"999","ECCENTRICITY":"0.00014780","BSTAR":"0.00007120400000","TIME_SYSTEM":"UTC","REF_FRAME":"TEME","FILE":"3507292","OBJECT_NAME":"STARLINK-1612","OBJECT_ID":"2020-057AZ","EPHEMERIS_TYPE":"0","CLASSIFICATION_TYPE":"U","PERIAPSIS":"546.195","LAUNCH_DATE":"2020-08-18","PERIOD":"95.592","RCS_SIZE":"LARGE","MEAN_MOTION_DDOT":"0.0000000000000","DECAY_DATE":null,"OBJECT_TYPE":"PAYLOAD","SITE":"AFETR","EPOCH":"2022-07-03T17:53:17.077920","MEAN_MOTION":"15.06398402","APOAPSIS":"548.242","INCLINATION":"53.0532","SEMIMAJOR_AXIS":"6925.353","MEAN_ELEMENT_THEORY":"SGP4","NORAD_CAT_ID":"46164","CENTER_NAME":"EARTH","MEAN_MOTION_DOT":"0.00000779","GP_ID":"207354815","TLE_LINE1":"1 46164U 20057AZ  22184.74533655  .00000779  00000-0  71204-4 0  9991","COUNTRY_CODE":"US","ARG_OF_PERICENTER":"69.3357","MEAN_ANOMALY":"290.7790"},{"ECCENTRICITY":"0.00013500","BSTAR":"0.00043328000000","TLE_LINE2":"2 46165  53.0518 230.8707 0001350 335.3107  24.7820 15.13528822103389","ELEMENT_SET_NO":"999","REV_AT_EPOCH":"10338","RA_OF_ASC_NODE":"230.8707","TIME_SYSTEM":"UTC","FILE":"3507188","REF_FRAME":"TEME","CLASSIFICATION_TYPE":"U","EPHEMERIS_TYPE":"0","OBJECT_ID":"2020-057BA","OBJECT_NAME":"STARLINK-1613","PERIAPSIS":"524.519","LAUNCH_DATE":"2020-08-18","DECAY_DATE":null,"PERIOD":"95.142","RCS_SIZE":"LARGE","MEAN_MOTION_DDOT":"0.0000000000000","SITE":"AFETR","OBJECT_TYPE":"PAYLOAD","INCLINATION":"53.0518","APOAPSIS":"526.383","MEAN_MOTION":"15.13528822","EPOCH":"2022-07-03T13:01:41.960928","MEAN_ELEMENT_THEORY":"SGP4","SEMIMAJOR_AXIS":"6903.586","CENTER_NAME":"EARTH","NORAD_CAT_ID":"46165","MEAN_MOTION_DOT":"0.00007560","GP_ID":"207326843","TLE_LINE1":"1 46165U 20057BA  22184.54284677  .00007560  00000-0  43328-3 0  9997","ARG_OF_PERICENTER":"335.3107","COUNTRY_CODE":"US","MEAN_ANOMALY":"24.7820"},{"NORAD_CAT_ID":"46166","CENTER_NAME":"EARTH","MEAN_MOTION_DOT":"0.00001738","MEAN_MOTION":"15.06398323","EPOCH":"2022-07-03T12:45:24.790752","INCLINATION":"53.0543","APOAPSIS":"548.153","MEAN_ELEMENT_THEORY":"SGP4","SEMIMAJOR_AXIS":"6925.354","ARG_OF_PERICENTER":"73.8638","COUNTRY_CODE":"US","MEAN_ANOMALY":"286.2499","TLE_LINE1":"1 46166U 20057BB  22184.53153693  .00001738  00000-0  13555-3 0  9990","GP_ID":"207325591","REF_FRAME":"TEME","FILE":"3507188","OBJECT_NAME":"STARLINK-1615","OBJECT_ID":"2020-057BB","EPHEMERIS_TYPE":"0","CLASSIFICATION_TYPE":"U","REV_AT_EPOCH":"10332","TLE_LINE2":"2 46166  53.0543 235.2689 0001349  73.8638 286.2499 15.06398323103321","RA_OF_ASC_NODE":"235.2689","ELEMENT_SET_NO":"999","BSTAR":"0.00013555000000","ECCENTRICITY":"0.00013490","TIME_SYSTEM":"UTC","DECAY_DATE":null,"RCS_SIZE":"LARGE","MEAN_MOTION_DDOT":"0.0000000000000","PERIOD":"95.592","SITE":"AFETR","OBJECT_TYPE":"PAYLOAD","PERIAPSIS":"546.284","LAUNCH_DATE":"2020-08-18"},{"GP_ID":"207325841","TLE_LINE1":"1 46167U 20057BC  22184.54629880  .00001671  00000-0  13106-3 0  9996","MEAN_ANOMALY":"294.7632","ARG_OF_PERICENTER":"65.3515","COUNTRY_CODE":"US","MEAN_ELEMENT_THEORY":"SGP4","SEMIMAJOR_AXIS":"6925.332","MEAN_MOTION":"15.06405358","EPOCH":"2022-07-03T13:06:40.216320","INCLINATION":"53.0529","APOAPSIS":"548.250","MEAN_MOTION_DOT":"0.00001671","NORAD_CAT_ID":"46167","CENTER_NAME":"EARTH","LAUNCH_DATE":"2020-08-18","PERIAPSIS":"546.144","SITE":"AFETR","OBJECT_TYPE":"PAYLOAD","DECAY_DATE":null,"RCS_SIZE":"LARGE","PERIOD":"95.592","MEAN_MOTION_DDOT":"0.0000000000000","TIME_SYSTEM":"UTC","RA_OF_ASC_NODE":"235.2030","TLE_LINE2":"2 46167  53.0529 235.2030 0001520  65.3515 294.7632 15.06405358103327","REV_AT_EPOCH":"10332","ELEMENT_SET_NO":"999","ECCENTRICITY":"0.00015200","BSTAR":"0.00013106000000","EPHEMERIS_TYPE":"0","OBJECT_NAME":"STARLINK-1626","OBJECT_ID":"2020-057BC","CLASSIFICATION_TYPE":"U","REF_FRAME":"TEME","FILE":"3507188"},{"BSTAR":"0.00025533000000","ECCENTRICITY":"0.00017180","TLE_LINE2":"2 46168  53.0538 184.4863 0001718  58.7715 301.3442 15.06417256104048","RA_OF_ASC_NODE":"184.4863","REV_AT_EPOCH":"10404","ELEMENT_SET_NO":"999","TIME_SYSTEM":"UTC","FILE":"3507292","REF_FRAME":"TEME","CLASSIFICATION_TYPE":"U","EPHEMERIS_TYPE":"0","OBJECT_NAME":"STARLINK-1627","OBJECT_ID":"2020-057BD","PERIAPSIS":"545.971","LAUNCH_DATE":"2020-08-18","DECAY_DATE":null,"RCS_SIZE":"LARGE","PERIOD":"95.591","MEAN_MOTION_DDOT":"0.0000000000000","SITE":"AFETR","OBJECT_TYPE":"PAYLOAD","INCLINATION":"53.0538","APOAPSIS":"548.350","MEAN_MOTION":"15.06417256","EPOCH":"2022-07-03T17:22:45.272640","MEAN_ELEMENT_THEORY":"SGP4","SEMIMAJOR_AXIS":"6925.296","CENTER_NAME":"EARTH","NORAD_CAT_ID":"46168","MEAN_MOTION_DOT":"0.00003525","TLE_LINE1":"1 46168U 20057BD  22184.72413510  .00003525  00000-0  25533-3 0  9995","GP_ID":"207354316","ARG_OF_PERICENTER":"58.7715","COUNTRY_CODE":"US","MEAN_ANOMALY":"301.3442"},{"MEAN_MOTION_DOT":"0.00001509","CENTER_NAME":"EARTH","NORAD_CAT_ID":"46169","SEMIMAJOR_AXIS":"6927.798","MEAN_ELEMENT_THEORY":"SGP4","APOAPSIS":"550.456","INCLINATION":"52.9999","EPOCH":"2022-07-03T20:06:32.388768","MEAN_MOTION":"15.05601293","MEAN_ANOMALY":"288.6267","COUNTRY_CODE":"US","ARG_OF_PERICENTER":"71.4846","GP_ID":"207355053","TLE_LINE1":"1 46169U 20057BE  22184.83787487  .00001509  00000-0  12265-3 0  9993","CLASSIFICATION_TYPE":"U","EPHEMERIS_TYPE":"0","OBJECT_NAME":"STARLINK-1628","OBJECT_ID":"2020-057BE","FILE":"3507292","REF_FRAME":"TEME","TIME_SYSTEM":"UTC","BSTAR":"0.00012265000000","ECCENTRICITY":"0.00011460","RA_OF_ASC_NODE":"233.8809","TLE_LINE2":"2 46169  52.9999 233.8809 0001146  71.4846 288.6267 15.05601293103326","REV_AT_EPOCH":"10332","ELEMENT_SET_NO":"999","OBJECT_TYPE":"PAYLOAD","SITE":"AFETR","RCS_SIZE":"LARGE","PERIOD":"95.643","MEAN_MOTION_DDOT":"0.0000000000000","DECAY_DATE":null,"LAUNCH_DATE":"2020-08-18","PERIAPSIS":"548.869"}];
